*******************************************************************************
JPL/HORIZONS                2735 Ellen (1977 RB)           2023-Sep-04 11:19:37
Rec #:    2735 (+COV) Soln.date: 2023-Aug-23_01:28:59   # obs: 2351 (1971-2022)
 
IAU76/J2000 helio. ecliptic osc. elements (au, days, deg., period=Julian yrs):
 
  EPOCH=  2457846.5 ! 2017-Apr-03.00 (TDB)         Residual RMS= .25674
   EC= .05485254058427138  QR= 1.755215063930151   TP= 2458298.1923783924
   OM= 344.5932129380188   W=  59.69761975138266   IN= 23.05402862385234
   A= 1.857080655980592    MA= 184.0858852786056   ADIST= 1.958946248031033
   PER= 2.53078            N= .389455574           ANGMOM= .023406824
   DAN= 1.80163            DDN= 1.90419            L= 42.1722436
   B= 19.760951            MOID= .78781199         TP= 2018-Jun-28.6923783924
 
Asteroid physical parameters (km, seconds, rotational period in hours):
   GM= n.a.                RAD= 1.7645             ROTPER= 159.
   H= 14.5                 G= .150                 B-V= n.a.
                           ALBEDO= .292            STYP= SDU::

ASTEROID comments: 
1: soln ref.= JPL#44, OCC=0
2: source=ORB
*******************************************************************************


*******************************************************************************
Ephemeris / API_USER Mon Sep  4 11:19:37 2023 Pasadena, USA      / Horizons
*******************************************************************************
Target body name: 2735 Ellen (1977 RB)            {source: JPL#44}
Center body name: Solar System Barycenter (0)     {source: DE441}
Center-site name: BODY CENTER
*******************************************************************************
Start time      : A.D. 2023-Aug-12 00:00:00.0000 TDB
Stop  time      : A.D. 2023-Aug-13 00:00:00.0000 TDB
Step-size       : 2880 minutes
*******************************************************************************
Center geodetic : 0.0, 0.0, 0.0                   {E-lon(deg),Lat(deg),Alt(km)}
Center cylindric: 0.0, 0.0, 0.0                   {E-lon(deg),Dxy(km),Dz(km)}
Center radii    : (undefined)
Small perturbers: Yes                             {source: SB441-N16}
Output units    : KM-S
Calendar mode   : Mixed Julian/Gregorian
Output type     : GEOMETRIC cartesian states
Output format   : 2 (position and velocity)
Reference frame : Ecliptic of J2000.0
*******************************************************************************
Initial IAU76/J2000 heliocentric ecliptic osculating elements (au, days, deg.):
  EPOCH=  2457846.5 ! 2017-Apr-03.00 (TDB)         Residual RMS= .25674        
   EC= .05485254058427138  QR= 1.755215063930151   TP= 2458298.1923783924      
   OM= 344.5932129380188   W=  59.69761975138266   IN= 23.05402862385234       
  Equivalent ICRF heliocentric cartesian coordinates (au, au/d):
   X=-1.274563554872397E+00  Y=-9.381950337879026E-01  Z=-1.154052233522720E+00
  VX= 9.017264037630483E-03 VY=-6.108166564377464E-03 VZ=-4.917938752368173E-03
Asteroid physical parameters (km, seconds, rotational period in hours):        
   GM= n.a.                RAD= 1.7645             ROTPER= 159.                
   H= 14.5                 G= .150                 B-V= n.a.                   
                           ALBEDO= .292            STYP= SDU::                 
*******************************************************************************
JDTDB
   X     Y     Z
   VX    VY    VZ
*******************************************************************************
$$SOE
2460168.500000000 = A.D. 2023-Aug-12 00:00:00.0000 TDB 
 X = 1.487812171939648E+08 Y = 1.927456619770094E+08 Z = 9.621505116971728E+07
 VX=-1.866627808832657E+01 VY= 1.314481085286677E+01 VZ= 3.281300204203475E+00
$$EOE
*******************************************************************************
 
TIME

  Barycentric Dynamical Time ("TDB" or T_eph) output was requested. This
continuous coordinate time is equivalent to the relativistic proper time
of a clock at rest in a reference frame co-moving with the solar system
barycenter but outside the system's gravity well. It is the independent
variable in the solar system relativistic equations of motion.

  TDB runs at a uniform rate of one SI second per second and is independent
of irregularities in Earth's rotation.
 
CALENDAR SYSTEM

  Mixed calendar mode was active such that calendar dates after AD 1582-Oct-15
(if any) are in the modern Gregorian system. Dates prior to 1582-Oct-5 (if any)
are in the Julian calendar system, which is automatically extended for dates
prior to its adoption on 45-Jan-1 BC.  The Julian calendar is useful for
matching historical dates. The Gregorian calendar more accurately corresponds
to the Earth's orbital motion and seasons. A "Gregorian-only" calendar mode is
available if such physical events are the primary interest.

REFERENCE FRAME AND COORDINATES

  Ecliptic at the standard reference epoch

    Reference epoch: J2000.0
    X-Y plane: adopted Earth orbital plane at the reference epoch
               Note: IAU76 obliquity of 84381.448 arcseconds wrt ICRF X-Y plane
    X-axis   : ICRF
    Z-axis   : perpendicular to the X-Y plane in the directional (+ or -) sense
               of Earth's north pole at the reference epoch.

  Symbol meaning:

    JDTDB    Julian Day Number, Barycentric Dynamical Time
      X      X-component of position vector (km)
      Y      Y-component of position vector (km)
      Z      Z-component of position vector (km)
      VX     X-component of velocity vector (km/sec)                           
      VY     Y-component of velocity vector (km/sec)                           
      VZ     Z-component of velocity vector (km/sec)                           

ABERRATIONS AND CORRECTIONS

 Geometric state vectors have NO corrections or aberrations applied.

Computations by ...

    Solar System Dynamics Group, Horizons On-Line Ephemeris System
    4800 Oak Grove Drive, Jet Propulsion Laboratory
    Pasadena, CA  91109   USA

    General site: https://ssd.jpl.nasa.gov/
    Mailing list: https://ssd.jpl.nasa.gov/email_list.html
    System news : https://ssd.jpl.nasa.gov/horizons/news.html
    User Guide  : https://ssd.jpl.nasa.gov/horizons/manual.html
    Connect     : browser        https://ssd.jpl.nasa.gov/horizons/app.html#/x
                  API            https://ssd-api.jpl.nasa.gov/doc/horizons.html
                  command-line   telnet ssd.jpl.nasa.gov 6775
                  e-mail/batch   https://ssd.jpl.nasa.gov/ftp/ssd/hrzn_batch.txt
                  scripts        https://ssd.jpl.nasa.gov/ftp/ssd/SCRIPTS
    Author      : Jon.D.Giorgini@jpl.nasa.gov
*******************************************************************************
